{
  "Alpha Centauri": {
    "components": [
      "Alpha Centauri A",
      "Alpha Centauri B"
    ],
    "hierarchy": "binary",
    "wds_id": "14396-6050",
    "raw": {
      "source": "Pourbaix & Correia (2017) via Kervella et al. (2016)",
      "doi": "10.1051/0004-6361:20021249",
      "note": "Pourbaix et al. 2002 solution; verify T_peri against paper",
      "orb_grade": 10,
      "period_yr": 79.91,
      "period_yr_err": 0.01,
      "semi_major_axis_arcsec": 17.57,
      "semi_major_axis_arcsec_err": 0.022,
      "eccentricity": 0.5179,
      "eccentricity_err": 0.0003,
      "inclination_deg": 79.205,
      "inclination_err_deg": 0.05,
      "longitude_of_ascending_node_deg": 204.85,
      "longitude_of_ascending_node_err_deg": 0.08,
      "argument_of_periapsis_deg": 231.65,
      "argument_of_periapsis_err_deg": 0.08,
      "t_peri_yr": 1954.8,
      "t_peri_jd": 2435035.7,
      "t_peri_note": "WDS 2023 sep/PA calibration: predicts sep=8.00\" PA=5.0° vs observed 8.1\"/5°"
    },
    "derived": {
      "semi_major_axis_au": 23.6754,
      "semi_major_axis_m": 3541791877592.572,
      "mean_anomaly_at_b1950_deg": 338.3757,
      "mean_anomaly_at_j2000_deg": 203.6291,
      "note": "a_au = a_arcsec × dist_pc (small-angle); M from published T_peri"
    },
    "barycenter_state_b1950": {
      "mass_A_msun": 1.1055,
      "mass_B_msun": 0.9092,
      "epoch_jd": 2433282.5,
      "epoch_label": "B1950.0",
      "icrs_x_km": -15527808152883.658,
      "icrs_y_km": -13030925048883.236,
      "icrs_z_km": -36336649134719.59,
      "icrs_vx_km_s": -10.67882706248958,
      "icrs_vy_km_s": 21.46224974800752,
      "icrs_vz_km_s": 18.145649599660533,
      "distance_pc": 1.3474909718104888,
      "distance_km": 41579226829771.46,
      "note": "mass-weighted mean of component state vectors at B1950.0. Individual component positions are incorrect for short-period binaries due to orbital velocity in proper motion. Use this barycenter + Keplerian orbital elements for CFG placement."
    },
    "individual_states": {
      "b1950": {
        "Alpha Centauri A": {
          "icrs_x_km": -15527352619519.38,
          "icrs_y_km": -13030086238644.053,
          "icrs_z_km": -36336848124526.26,
          "icrs_vx_km_s": -14.05115341806497,
          "icrs_vy_km_s": 19.611641464268693,
          "icrs_vz_km_s": 13.526210148574318
        },
        "Alpha Centauri B": {
          "icrs_x_km": -15528362037765.102,
          "icrs_y_km": -13031944961685.06,
          "icrs_z_km": -36336407182199.5,
          "icrs_vx_km_s": -6.578401648841764,
          "icrs_vy_km_s": 23.71241193198604,
          "icrs_vz_km_s": 23.762444928714437
        }
      },
      "j2000": {
        "Alpha Centauri A": {
          "icrs_x_km": -15543954299385.086,
          "icrs_y_km": -12997579863089.29,
          "icrs_z_km": -36305787419451.805,
          "icrs_vx_km_s": -9.526316512113453,
          "icrs_vy_km_s": 23.433123266499315,
          "icrs_vz_km_s": 17.842863132801526
        },
        "Alpha Centauri B": {
          "icrs_x_km": -15545513766583.373,
          "icrs_y_km": -12996428326783.963,
          "icrs_z_km": -36310729013383.625,
          "icrs_vx_km_s": -12.080169356199223,
          "icrs_vy_km_s": 19.065856573026565,
          "icrs_vz_km_s": 18.513808903567963
        }
      }
    }
  },
  "Sirius": {
    "components": [
      "Sirius A",
      "Sirius B"
    ],
    "hierarchy": "binary",
    "wds_id": "06451-1643",
    "raw": {
      "source": "Bond et al. (2017)",
      "doi": "10.3847/1538-3881/aa6d54",
      "note": "AJ 153, 51 (2017). Best modern orbit.",
      "orb_grade": 10,
      "period_yr": 50.09,
      "period_yr_err": 0.09,
      "semi_major_axis_arcsec": 7.5,
      "semi_major_axis_arcsec_err": 0.014,
      "eccentricity": 0.592,
      "eccentricity_err": 0.0014,
      "inclination_deg": 136.336,
      "inclination_err_deg": 0.04,
      "longitude_of_ascending_node_deg": 45.4,
      "longitude_of_ascending_node_err_deg": 0.12,
      "argument_of_periapsis_deg": 149.23,
      "argument_of_periapsis_err_deg": 0.04,
      "t_peri_yr": 1994.344,
      "t_peri_jd": 2449479.1,
      "t_peri_note": "Bond et al. 2017 Table 6"
    },
    "derived": {
      "semi_major_axis_au": 19.778,
      "semi_major_axis_m": 2958740619313.837,
      "mean_anomaly_at_b1950_deg": 41.2969,
      "mean_anomaly_at_j2000_deg": 40.65,
      "note": "a_au = a_arcsec × dist_pc (small-angle); M from published T_peri"
    },
    "barycenter_state_b1950": {
      "mass_A_msun": 2.063,
      "mass_B_msun": 1.018,
      "epoch_jd": 2433282.5,
      "epoch_label": "B1950.0",
      "icrs_x_km": -15330792920689.477,
      "icrs_y_km": 76756582291560.02,
      "icrs_z_km": -23484122132477.207,
      "icrs_vx_km_s": 8.197858376918768,
      "icrs_vy_km_s": -7.860190540331654,
      "icrs_vz_km_s": -11.886181763557635,
      "distance_pc": 2.6370612589330453,
      "distance_km": 81371208077081.31,
      "note": "mass-weighted mean of component state vectors at B1950.0. Individual component positions are incorrect for short-period binaries due to orbital velocity in proper motion. Use this barycenter + Keplerian orbital elements for CFG placement."
    },
    "individual_states": {
      "b1950": {
        "Sirius A": {
          "icrs_x_km": -15330609523377.885,
          "icrs_y_km": 76757310789599.44,
          "icrs_z_km": -23483801113860.3,
          "icrs_vx_km_s": 11.716665344820786,
          "icrs_vy_km_s": -5.213722270795663,
          "icrs_vz_km_s": -13.17198209638249
        },
        "Sirius B": {
          "icrs_x_km": -15331164579484.97,
          "icrs_y_km": 76755105973823.94,
          "icrs_z_km": -23484772683957.242,
          "icrs_vx_km_s": 1.0669165549326562,
          "icrs_vy_km_s": -13.223318281051448,
          "icrs_vz_km_s": -9.28047833858939
        }
      },
      "j2000": {
        "Sirius A": {
          "icrs_x_km": -15317684223283.254,
          "icrs_y_km": 76744900819370.55,
          "icrs_z_km": -23502552648691.85,
          "icrs_vx_km_s": 11.730994536212696,
          "icrs_vy_km_s": -5.158014669895451,
          "icrs_vz_km_s": -13.147341159735065
        },
        "Sirius B": {
          "icrs_x_km": -15318209205800.361,
          "icrs_y_km": 76742718801721.22,
          "icrs_z_km": -23503534610806.676,
          "icrs_vx_km_s": 1.0378781248329396,
          "icrs_vy_km_s": -13.336210992895396,
          "icrs_vz_km_s": -9.330413753425969
        }
      }
    }
  },
  "61 Cygni": {
    "components": [
      "61 Cygni A",
      "61 Cygni B"
    ],
    "hierarchy": "binary",
    "wds_id": "21069+3845",
    "raw": {
      "source": "Strand (1952) / Walker (1995) via ORB6",
      "doi": null,
      "note": "Long period (~659 yr). Orbital solution uncertain; ORB6 grade ~3-4. Verify from ORB6 or recent speckle solution. Mean anomaly changes slowly (~0.55 deg/yr) so epoch error of a few years is acceptable.",
      "orb_grade": 3,
      "period_yr": 659.0,
      "period_yr_err": 50.0,
      "semi_major_axis_arcsec": 24.3,
      "semi_major_axis_arcsec_err": 2.0,
      "eccentricity": 0.49,
      "eccentricity_err": 0.05,
      "inclination_deg": 52.0,
      "inclination_err_deg": 5.0,
      "longitude_of_ascending_node_deg": 178.0,
      "longitude_of_ascending_node_err_deg": 10.0,
      "argument_of_periapsis_deg": 149.0,
      "argument_of_periapsis_err_deg": 15.0,
      "t_peri_yr": 1767.0,
      "t_peri_jd": 2366441.8,
      "t_peri_note": "UNCERTAIN. Needs verification from current ORB6 entry."
    },
    "derived": {
      "semi_major_axis_au": 84.9665,
      "semi_major_axis_m": 12710812829639.148,
      "mean_anomaly_at_b1950_deg": 99.9697,
      "mean_anomaly_at_j2000_deg": 127.2838,
      "note": "a_au = a_arcsec × dist_pc (small-angle); M from published T_peri"
    },
    "barycenter_state_b1950": {
      "mass_A_msun": 0.708,
      "mass_B_msun": 0.696,
      "epoch_jd": 2433282.5,
      "epoch_label": "B1950.0",
      "icrs_x_km": 61309159612067.3,
      "icrs_y_km": -57867782128463.63,
      "icrs_z_km": 67544967105356.11,
      "icrs_vx_km_s": -14.330163287094935,
      "icrs_vy_km_s": 107.5837128606606,
      "icrs_vz_km_s": 0.5249332802793286,
      "distance_pc": 3.4965652573897277,
      "distance_km": 107892730269477.9,
      "note": "mass-weighted mean of component state vectors at B1950.0. Individual component positions are incorrect for short-period binaries due to orbital velocity in proper motion. Use this barycenter + Keplerian orbital elements for CFG placement."
    },
    "individual_states": {
      "b1950": {
        "61 Cygni A": {
          "icrs_x_km": 61307854032643.56,
          "icrs_y_km": -57872888803306.234,
          "icrs_z_km": 67550986512529.74,
          "icrs_vx_km_s": -15.019696661395626,
          "icrs_vy_km_s": 108.1417375376791,
          "icrs_vz_km_s": 1.6639417002768466
        },
        "61 Cygni B": {
          "icrs_x_km": 61310487701481.1,
          "icrs_y_km": -57862587407503.055,
          "icrs_z_km": 67538843915300.17,
          "icrs_vx_km_s": -13.628741406340783,
          "icrs_vy_km_s": 107.01606706852107,
          "icrs_vz_km_s": -0.633713215925043
        }
      },
      "j2000": {
        "61 Cygni A": {
          "icrs_x_km": 61284237535645.36,
          "icrs_y_km": -57702013763573.33,
          "icrs_z_km": 67553286003228.445,
          "icrs_vx_km_s": -14.912340693943227,
          "icrs_vy_km_s": 108.42025022474826,
          "icrs_vz_km_s": 1.2533945518270668
        },
        "61 Cygni B": {
          "icrs_x_km": 61288898973745.64,
          "icrs_y_km": -57693973394554.055,
          "icrs_z_km": 67538175622378.07,
          "icrs_vx_km_s": -13.73794833874926,
          "icrs_vy_km_s": 106.73275243857142,
          "icrs_vz_km_s": -0.21608766836406024
        }
      }
    }
  }
}